[
  {
    "OBJECT_NAME": "STARLINK-35441",
    "OBJECT_ID": "25223R",
    "EPOCH": "2025-11-11T05:11:55.147200",
    "MEAN_MOTION": 15.39647698,
    "ECCENTRICITY": 0.0001982,
    "INCLINATION": 53.1601,
    "RA_OF_ASC_NODE": 126.1158,
    "ARG_OF_PERICENTER": 76.3541,
    "MEAN_ANOMALY": 283.7685,
    "EPHEMERIS_TYPE": 0,
    "CLASSIFICATION_TYPE": "U",
    "NORAD_CAT_ID": 65869,
    "ELEMENT_SET_NO": 999,
    "REV_AT_EPOCH": 604,
    "BSTAR": 0.0017198,
    "MEAN_MOTION_DOT": 0.00069079,
    "MEAN_MOTION_DDOT": 0.0,
    "TLE_LINE1": "1 65869U 25223R   25315.21661050  .00069079  00000+0  17198-2 0  9993",
    "TLE_LINE2": "2 65869  53.1601 126.1158 0001982  76.3541 283.7685 15.39647698  6049",
    "COMMENT": "Grouped by shell and plane from TLE"
  },
  {
    "OBJECT_NAME": "STARLINK-35433",
    "OBJECT_ID": "25223S",
    "EPOCH": "2025-11-11T04:51:50.797728",
    "MEAN_MOTION": 15.39603351,
    "ECCENTRICITY": 0.0002903,
    "INCLINATION": 53.1604,
    "RA_OF_ASC_NODE": 126.0276,
    "ARG_OF_PERICENTER": 79.4973,
    "MEAN_ANOMALY": 280.6359,
    "EPHEMERIS_TYPE": 0,
    "CLASSIFICATION_TYPE": "U",
    "NORAD_CAT_ID": 65870,
    "ELEMENT_SET_NO": 999,
    "REV_AT_EPOCH": 605,
    "BSTAR": 0.0023236000000000003,
    "MEAN_MOTION_DOT": 0.00093645,
    "MEAN_MOTION_DDOT": 0.0,
    "TLE_LINE1": "1 65870U 25223S   25315.20267127  .00093645  00000+0  23236-2 0  9997",
    "TLE_LINE2": "2 65870  53.1604 126.0276 0002903  79.4973 280.6359 15.39603351  6054",
    "COMMENT": "Grouped by shell and plane from TLE"
  },
  {
    "OBJECT_NAME": "STARLINK-35465",
    "OBJECT_ID": "25223T",
    "EPOCH": "2025-11-11T04:58:32.978496",
    "MEAN_MOTION": 15.39649346,
    "ECCENTRICITY": 0.0002676,
    "INCLINATION": 53.1592,
    "RA_OF_ASC_NODE": 126.057,
    "ARG_OF_PERICENTER": 82.8083,
    "MEAN_ANOMALY": 277.3226,
    "EPHEMERIS_TYPE": 0,
    "CLASSIFICATION_TYPE": "U",
    "NORAD_CAT_ID": 65871,
    "ELEMENT_SET_NO": 999,
    "REV_AT_EPOCH": 604,
    "BSTAR": 0.0024193,
    "MEAN_MOTION_DOT": 0.00097718,
    "MEAN_MOTION_DDOT": 0.0,
    "TLE_LINE1": "1 65871U 25223T   25315.20732614  .00097718  00000+0  24193-2 0  9994",
    "TLE_LINE2": "2 65871  53.1592 126.0570 0002676  82.8083 277.3226 15.39649346  6044",
    "COMMENT": "Grouped by shell and plane from TLE"
  },
  {
    "OBJECT_NAME": "STARLINK-34108",
    "OBJECT_ID": "25223U",
    "EPOCH": "2025-11-10T20:51:05.588352",
    "MEAN_MOTION": 15.39657701,
    "ECCENTRICITY": 4.06e-05,
    "INCLINATION": 53.1584,
    "RA_OF_ASC_NODE": 127.495,
    "ARG_OF_PERICENTER": 298.2889,
    "MEAN_ANOMALY": 61.8075,
    "EPHEMERIS_TYPE": 0,
    "CLASSIFICATION_TYPE": "U",
    "NORAD_CAT_ID": 65872,
    "ELEMENT_SET_NO": 999,
    "REV_AT_EPOCH": 599,
    "BSTAR": 0.0016361000000000001,
    "MEAN_MOTION_DOT": 0.00065691,
    "MEAN_MOTION_DDOT": 0.0,
    "TLE_LINE1": "1 65872U 25223U   25314.86881468  .00065691  00000+0  16361-2 0  9991",
    "TLE_LINE2": "2 65872  53.1584 127.4950 0000406 298.2889  61.8075 15.39657701  5994",
    "COMMENT": "Grouped by shell and plane from TLE"
  },
  {
    "OBJECT_NAME": "STARLINK-35423",
    "OBJECT_ID": "25223V",
    "EPOCH": "2025-11-11T04:31:48.482976",
    "MEAN_MOTION": 15.39656228,
    "ECCENTRICITY": 0.0002544,
    "INCLINATION": 53.1537,
    "RA_OF_ASC_NODE": 125.9395,
    "ARG_OF_PERICENTER": 76.3329,
    "MEAN_ANOMALY": 283.7959,
    "EPHEMERIS_TYPE": 0,
    "CLASSIFICATION_TYPE": "U",
    "NORAD_CAT_ID": 65873,
    "ELEMENT_SET_NO": 999,
    "REV_AT_EPOCH": 604,
    "BSTAR": 0.0014641,
    "MEAN_MOTION_DOT": 0.00058687,
    "MEAN_MOTION_DDOT": 0.0,
    "TLE_LINE1": "1 65873U 25223V   25315.18875559  .00058687  00000+0  14641-2 0  9998",
    "TLE_LINE2": "2 65873  53.1537 125.9395 0002544  76.3329 283.7959 15.39656228  6044",
    "COMMENT": "Grouped by shell and plane from TLE"
  },
  {
    "OBJECT_NAME": "STARLINK-35425",
    "OBJECT_ID": "25223W",
    "EPOCH": "2025-11-10T20:57:47.074464",
    "MEAN_MOTION": 15.39661786,
    "ECCENTRICITY": 9.21e-05,
    "INCLINATION": 53.162,
    "RA_OF_ASC_NODE": 127.5261,
    "ARG_OF_PERICENTER": 80.2281,
    "MEAN_ANOMALY": 279.8828,
    "EPHEMERIS_TYPE": 0,
    "CLASSIFICATION_TYPE": "U",
    "NORAD_CAT_ID": 65874,
    "ELEMENT_SET_NO": 999,
    "REV_AT_EPOCH": 599,
    "BSTAR": 0.0021841,
    "MEAN_MOTION_DOT": 0.000881,
    "MEAN_MOTION_DDOT": 0.0,
    "TLE_LINE1": "1 65874U 25223W   25314.87346151  .00088100  00000+0  21841-2 0  9998",
    "TLE_LINE2": "2 65874  53.1620 127.5261 0000921  80.2281 279.8828 15.39661786  5995",
    "COMMENT": "Grouped by shell and plane from TLE"
  },
  {
    "OBJECT_NAME": "STARLINK-34688",
    "OBJECT_ID": "25223X",
    "EPOCH": "2025-11-11T02:51:37.573632",
    "MEAN_MOTION": 15.3964206,
    "ECCENTRICITY": 0.0001273,
    "INCLINATION": 53.159,
    "RA_OF_ASC_NODE": 126.214,
    "ARG_OF_PERICENTER": 83.2035,
    "MEAN_ANOMALY": 276.9115,
    "EPHEMERIS_TYPE": 0,
    "CLASSIFICATION_TYPE": "U",
    "NORAD_CAT_ID": 65875,
    "ELEMENT_SET_NO": 999,
    "REV_AT_EPOCH": 603,
    "BSTAR": 0.0013088,
    "MEAN_MOTION_DOT": 0.0005235,
    "MEAN_MOTION_DDOT": 0.0,
    "TLE_LINE1": "1 65875U 25223X   25315.11918488  .00052350  00000+0  13088-2 0  9997",
    "TLE_LINE2": "2 65875  53.1590 126.2140 0001273  83.2035 276.9115 15.39642060  6032",
    "COMMENT": "Grouped by shell and plane from TLE"
  },
  {
    "OBJECT_NAME": "STARLINK-34438",
    "OBJECT_ID": "25223Y",
    "EPOCH": "2025-11-10T18:50:52.473984",
    "MEAN_MOTION": 15.39638009,
    "ECCENTRICITY": 0.0001481,
    "INCLINATION": 53.1608,
    "RA_OF_ASC_NODE": 127.6869,
    "ARG_OF_PERICENTER": 88.2125,
    "MEAN_ANOMALY": 271.905,
    "EPHEMERIS_TYPE": 0,
    "CLASSIFICATION_TYPE": "U",
    "NORAD_CAT_ID": 65876,
    "ELEMENT_SET_NO": 999,
    "REV_AT_EPOCH": 598,
    "BSTAR": 0.0017735000000000001,
    "MEAN_MOTION_DOT": 0.00071246,
    "MEAN_MOTION_DDOT": 0.0,
    "TLE_LINE1": "1 65876U 25223Y   25314.78532956  .00071246  00000+0  17735-2 0  9990",
    "TLE_LINE2": "2 65876  53.1608 127.6869 0001481  88.2125 271.9050 15.39638009  5986",
    "COMMENT": "Grouped by shell and plane from TLE"
  },
  {
    "OBJECT_NAME": "STARLINK-35462",
    "OBJECT_ID": "25223Z",
    "EPOCH": "2025-11-10T18:37:29.141472",
    "MEAN_MOTION": 15.39702786,
    "ECCENTRICITY": 0.0002052,
    "INCLINATION": 53.1552,
    "RA_OF_ASC_NODE": 127.6259,
    "ARG_OF_PERICENTER": 101.8163,
    "MEAN_ANOMALY": 258.3072,
    "EPHEMERIS_TYPE": 0,
    "CLASSIFICATION_TYPE": "U",
    "NORAD_CAT_ID": 65877,
    "ELEMENT_SET_NO": 999,
    "REV_AT_EPOCH": 598,
    "BSTAR": 0.0017886,
    "MEAN_MOTION_DOT": 0.0007202,
    "MEAN_MOTION_DDOT": 0.0,
    "TLE_LINE1": "1 65877U 25223Z   25314.77603173  .00072020  00000+0  17886-2 0  9998",
    "TLE_LINE2": "2 65877  53.1552 127.6259 0002052 101.8163 258.3072 15.39702786  5984",
    "COMMENT": "Grouped by shell and plane from TLE"
  },
  {
    "OBJECT_NAME": "STARLINK-35453",
    "OBJECT_ID": "25223AA",
    "EPOCH": "2025-11-11T04:18:25.507296",
    "MEAN_MOTION": 15.39626698,
    "ECCENTRICITY": 0.0001882,
    "INCLINATION": 53.1621,
    "RA_OF_ASC_NODE": 125.8812,
    "ARG_OF_PERICENTER": 84.1502,
    "MEAN_ANOMALY": 275.9718,
    "EPHEMERIS_TYPE": 0,
    "CLASSIFICATION_TYPE": "U",
    "NORAD_CAT_ID": 65878,
    "ELEMENT_SET_NO": 999,
    "REV_AT_EPOCH": 604,
    "BSTAR": 0.0014863,
    "MEAN_MOTION_DOT": 0.00059531,
    "MEAN_MOTION_DDOT": 0.0,
    "TLE_LINE1": "1 65878U 25223AA  25315.17946189  .00059531  00000+0  14863-2 0  9995",
    "TLE_LINE2": "2 65878  53.1621 125.8812 0001882  84.1502 275.9718 15.39626698  6044",
    "COMMENT": "Grouped by shell and plane from TLE"
  },
  {
    "OBJECT_NAME": "STARLINK-35418",
    "OBJECT_ID": "25223AB",
    "EPOCH": "2025-11-10T20:04:17.242752",
    "MEAN_MOTION": 15.39643645,
    "ECCENTRICITY": 5.78e-05,
    "INCLINATION": 53.1594,
    "RA_OF_ASC_NODE": 127.2906,
    "ARG_OF_PERICENTER": 83.7411,
    "MEAN_ANOMALY": 276.366,
    "EPHEMERIS_TYPE": 0,
    "CLASSIFICATION_TYPE": "U",
    "NORAD_CAT_ID": 65879,
    "ELEMENT_SET_NO": 999,
    "REV_AT_EPOCH": 599,
    "BSTAR": 0.0019125000000000001,
    "MEAN_MOTION_DOT": 0.00076934,
    "MEAN_MOTION_DDOT": 0.0,
    "TLE_LINE1": "1 65879U 25223AB  25314.83631068  .00076934  00000+0  19125-2 0  9997",
    "TLE_LINE2": "2 65879  53.1594 127.2906 0000578  83.7411 276.3660 15.39643645  5994",
    "COMMENT": "Grouped by shell and plane from TLE"
  },
  {
    "OBJECT_NAME": "STARLINK-35445",
    "OBJECT_ID": "25223AC",
    "EPOCH": "2025-11-10T20:17:39.656832",
    "MEAN_MOTION": 15.39689332,
    "ECCENTRICITY": 6.52e-05,
    "INCLINATION": 53.1602,
    "RA_OF_ASC_NODE": 127.3506,
    "ARG_OF_PERICENTER": 124.3462,
    "MEAN_ANOMALY": 235.7605,
    "EPHEMERIS_TYPE": 0,
    "CLASSIFICATION_TYPE": "U",
    "NORAD_CAT_ID": 65880,
    "ELEMENT_SET_NO": 999,
    "REV_AT_EPOCH": 599,
    "BSTAR": 0.0016034,
    "MEAN_MOTION_DOT": 0.00064424,
    "MEAN_MOTION_DDOT": 0.0,
    "TLE_LINE1": "1 65880U 25223AC  25314.84559788  .00064424  00000+0  16034-2 0  9995",
    "TLE_LINE2": "2 65880  53.1602 127.3506 0000652 124.3462 235.7605 15.39689332  5995",
    "COMMENT": "Grouped by shell and plane from TLE"
  },
  {
    "OBJECT_NAME": "STARLINK-35464",
    "OBJECT_ID": "25223AD",
    "EPOCH": "2025-11-10T21:31:06.263328",
    "MEAN_MOTION": 15.39676359,
    "ECCENTRICITY": 4.33e-05,
    "INCLINATION": 53.1574,
    "RA_OF_ASC_NODE": 126.9566,
    "ARG_OF_PERICENTER": 357.7215,
    "MEAN_ANOMALY": 2.3788,
    "EPHEMERIS_TYPE": 0,
    "CLASSIFICATION_TYPE": "U",
    "NORAD_CAT_ID": 65881,
    "ELEMENT_SET_NO": 999,
    "REV_AT_EPOCH": 600,
    "BSTAR": 0.0016393,
    "MEAN_MOTION_DOT": 0.00065862,
    "MEAN_MOTION_DDOT": 0.0,
    "TLE_LINE1": "1 65881U 25223AD  25314.89660027  .00065862  00000+0  16393-2 0  9995",
    "TLE_LINE2": "2 65881  53.1574 126.9566 0000433 357.7215   2.3788 15.39676359  6008",
    "COMMENT": "Grouped by shell and plane from TLE"
  }
]